start=new Date('2022-07-04T00:00:00.000Z').valueOf();
sats=[{"CLASSIFICATION_TYPE":"U","EPHEMERIS_TYPE":"0","OBJECT_ID":"2022-029U","OBJECT_NAME":"STARLINK-3670","FILE":"3507292","REF_FRAME":"TEME","TIME_SYSTEM":"UTC","BSTAR":"0.00028139000000","ECCENTRICITY":"0.00015800","TLE_LINE2":"2 52106  53.2184   6.0302 0001580  69.3627 318.9356 15.08819357  1303","REV_AT_EPOCH":"130","RA_OF_ASC_NODE":"6.0302","ELEMENT_SET_NO":"999","OBJECT_TYPE":"PAYLOAD","SITE":"AFETR","PERIOD":"95.439","RCS_SIZE":"LARGE","MEAN_MOTION_DDOT":"0.0000000000000","DECAY_DATE":null,"LAUNCH_DATE":"2022-03-19","PERIAPSIS":"538.715","MEAN_MOTION_DOT":"0.00004191","CENTER_NAME":"EARTH","NORAD_CAT_ID":"52106","SEMIMAJOR_AXIS":"6917.943","MEAN_ELEMENT_THEORY":"SGP4","APOAPSIS":"540.902","INCLINATION":"53.2184","EPOCH":"2022-07-03T22:00:00.999936","MEAN_MOTION":"15.08819357","MEAN_ANOMALY":"318.9356","COUNTRY_CODE":"US","ARG_OF_PERICENTER":"69.3627","GP_ID":"207359474","TLE_LINE1":"1 52106U 22029U   22184.91667824  .00004191  00000-0  28139-3 0  9990"},{"MEAN_ELEMENT_THEORY":"SGP4","SEMIMAJOR_AXIS":"6917.971","INCLINATION":"53.2144","APOAPSIS":"541.207","MEAN_MOTION":"15.08810512","EPOCH":"2022-07-03T22:00:00.999936","MEAN_MOTION_DOT":"0.00006919","CENTER_NAME":"EARTH","NORAD_CAT_ID":"52107","TLE_LINE1":"1 52107U 22029V   22184.91667824  .00006919  00000-0  45276-3 0  9992","GP_ID":"207359408","MEAN_ANOMALY":"124.2942","ARG_OF_PERICENTER":"39.0223","COUNTRY_CODE":"US","TIME_SYSTEM":"UTC","BSTAR":"0.00045276000000","ECCENTRICITY":"0.00019830","REV_AT_EPOCH":"130","TLE_LINE2":"2 52107  53.2144 356.0379 0001983  39.0223 124.2942 15.08810512  1308","RA_OF_ASC_NODE":"356.0379","ELEMENT_SET_NO":"999","CLASSIFICATION_TYPE":"U","OBJECT_NAME":"STARLINK-3658","EPHEMERIS_TYPE":"0","OBJECT_ID":"2022-029V","FILE":"3507292","REF_FRAME":"TEME","LAUNCH_DATE":"2022-03-19","PERIAPSIS":"538.464","SITE":"AFETR","OBJECT_TYPE":"PAYLOAD","DECAY_DATE":null,"PERIOD":"95.439","RCS_SIZE":"LARGE","MEAN_MOTION_DDOT":"0.0000000000000"},{"GP_ID":"207359573","TLE_LINE1":"1 52108U 22029W   22184.91667824  .00030292  00000-0  19149-2 0  9993","ARG_OF_PERICENTER":"47.3330","COUNTRY_CODE":"US","MEAN_ANOMALY":"75.9680","MEAN_MOTION":"15.08807840","EPOCH":"2022-07-03T22:00:00.999936","INCLINATION":"53.2161","APOAPSIS":"541.062","MEAN_ELEMENT_THEORY":"SGP4","SEMIMAJOR_AXIS":"6917.979","NORAD_CAT_ID":"52108","CENTER_NAME":"EARTH","MEAN_MOTION_DOT":"0.00030292","PERIAPSIS":"538.625","LAUNCH_DATE":"2022-03-19","DECAY_DATE":null,"RCS_SIZE":"LARGE","MEAN_MOTION_DDOT":"0.0000000000000","PERIOD":"95.440","SITE":"AFETR","OBJECT_TYPE":"PAYLOAD","TLE_LINE2":"2 52108  53.2161 356.0426 0001761  47.3330  75.9680 15.08807840  1307","RA_OF_ASC_NODE":"356.0426","REV_AT_EPOCH":"130","ELEMENT_SET_NO":"999","BSTAR":"0.00191490000000","ECCENTRICITY":"0.00017610","TIME_SYSTEM":"UTC","REF_FRAME":"TEME","FILE":"3507292","OBJECT_ID":"2022-029W","OBJECT_NAME":"STARLINK-3698","EPHEMERIS_TYPE":"0","CLASSIFICATION_TYPE":"U"},{"MEAN_MOTION_DOT":"0.00018705","CENTER_NAME":"EARTH","NORAD_CAT_ID":"52110","MEAN_ELEMENT_THEORY":"SGP4","SEMIMAJOR_AXIS":"6917.976","INCLINATION":"53.2154","APOAPSIS":"541.211","MEAN_MOTION":"15.08808808","EPOCH":"2022-07-03T22:00:00.999936","MEAN_ANOMALY":"96.3795","ARG_OF_PERICENTER":"46.9388","COUNTRY_CODE":"US","GP_ID":"207359458","TLE_LINE1":"1 52110U 22029Y   22184.91667824  .00018705  00000-0  11912-2 0  9991","CLASSIFICATION_TYPE":"U","OBJECT_ID":"2022-029Y","EPHEMERIS_TYPE":"0","OBJECT_NAME":"STARLINK-3687","FILE":"3507292","REF_FRAME":"TEME","TIME_SYSTEM":"UTC","BSTAR":"0.00119120000000","ECCENTRICITY":"0.00019810","RA_OF_ASC_NODE":"356.0401","TLE_LINE2":"2 52110  53.2154 356.0401 0001981  46.9388  96.3795 15.08808808  1306","REV_AT_EPOCH":"130","ELEMENT_SET_NO":"999","SITE":"AFETR","OBJECT_TYPE":"PAYLOAD","DECAY_DATE":null,"RCS_SIZE":"LARGE","PERIOD":"95.440","MEAN_MOTION_DDOT":"0.0000000000000","LAUNCH_DATE":"2022-03-19","PERIAPSIS":"538.470"},{"GP_ID":"207359122","TLE_LINE1":"1 52111U 22029Z   22184.91667824  .00043702  00000-0  27504-2 0  9991","ARG_OF_PERICENTER":"49.4585","COUNTRY_CODE":"US","MEAN_ANOMALY":"173.8564","MEAN_MOTION":"15.08794168","EPOCH":"2022-07-03T22:00:00.999936","INCLINATION":"53.2146","APOAPSIS":"541.116","MEAN_ELEMENT_THEORY":"SGP4","SEMIMAJOR_AXIS":"6918.020","NORAD_CAT_ID":"52111","CENTER_NAME":"EARTH","MEAN_MOTION_DOT":"0.00043702","PERIAPSIS":"538.655","LAUNCH_DATE":"2022-03-19","DECAY_DATE":null,"RCS_SIZE":"LARGE","MEAN_MOTION_DDOT":"0.0000000000000","PERIOD":"95.440","SITE":"AFETR","OBJECT_TYPE":"PAYLOAD","TLE_LINE2":"2 52111  53.2146 356.0354 0001779  49.4585 173.8564 15.08794168  1305","RA_OF_ASC_NODE":"356.0354","ELEMENT_SET_NO":"999","REV_AT_EPOCH":"130","ECCENTRICITY":"0.00017790","BSTAR":"0.00275040000000","TIME_SYSTEM":"UTC","REF_FRAME":"TEME","FILE":"3507292","OBJECT_NAME":"STARLINK-3708","OBJECT_ID":"2022-029Z","EPHEMERIS_TYPE":"0","CLASSIFICATION_TYPE":"U"},{"BSTAR":"0.00122610000000","ECCENTRICITY":"0.00019740","RA_OF_ASC_NODE":"356.0365","TLE_LINE2":"2 52112  53.2154 356.0365 0001974  49.9145 133.4055 15.08808508  1302","REV_AT_EPOCH":"130","ELEMENT_SET_NO":"999","TIME_SYSTEM":"UTC","FILE":"3507292","REF_FRAME":"TEME","CLASSIFICATION_TYPE":"U","OBJECT_ID":"2022-029AA","OBJECT_NAME":"STARLINK-3734","EPHEMERIS_TYPE":"0","PERIAPSIS":"538.476","LAUNCH_DATE":"2022-03-19","RCS_SIZE":"LARGE","PERIOD":"95.440","MEAN_MOTION_DDOT":"0.0000000000000","DECAY_DATE":null,"OBJECT_TYPE":"PAYLOAD","SITE":"AFETR","APOAPSIS":"541.207","INCLINATION":"53.2154","EPOCH":"2022-07-03T22:00:00.999936","MEAN_MOTION":"15.08808508","SEMIMAJOR_AXIS":"6917.977","MEAN_ELEMENT_THEORY":"SGP4","CENTER_NAME":"EARTH","NORAD_CAT_ID":"52112","MEAN_MOTION_DOT":"0.00019263","TLE_LINE1":"1 52112U 22029AA  22184.91667824  .00019263  00000-0  12261-2 0  9991","GP_ID":"207359759","COUNTRY_CODE":"US","ARG_OF_PERICENTER":"49.9145","MEAN_ANOMALY":"133.4055"},{"LAUNCH_DATE":"2022-03-19","PERIAPSIS":"538.635","OBJECT_TYPE":"PAYLOAD","SITE":"AFETR","RCS_SIZE":"LARGE","PERIOD":"95.440","MEAN_MOTION_DDOT":"0.0000000000000","DECAY_DATE":null,"TIME_SYSTEM":"UTC","RA_OF_ASC_NODE":"356.0268","TLE_LINE2":"2 52113  53.2156 356.0268 0001779  46.1213 217.1948 15.08800685  1304","REV_AT_EPOCH":"130","ELEMENT_SET_NO":"999","BSTAR":"0.00267300000000","ECCENTRICITY":"0.00017790","EPHEMERIS_TYPE":"0","OBJECT_NAME":"STARLINK-3736","OBJECT_ID":"2022-029AB","CLASSIFICATION_TYPE":"U","REF_FRAME":"TEME","FILE":"3507292","GP_ID":"207359221","TLE_LINE1":"1 52113U 22029AB  22184.91667824  .00042464  00000-0  26730-2 0  9997","MEAN_ANOMALY":"217.1948","COUNTRY_CODE":"US","ARG_OF_PERICENTER":"46.1213","SEMIMAJOR_AXIS":"6918.001","MEAN_ELEMENT_THEORY":"SGP4","EPOCH":"2022-07-03T22:00:00.999936","MEAN_MOTION":"15.08800685","APOAPSIS":"541.096","INCLINATION":"53.2156","MEAN_MOTION_DOT":"0.00042464","NORAD_CAT_ID":"52113","CENTER_NAME":"EARTH"},{"MEAN_ANOMALY":"158.3331","ARG_OF_PERICENTER":"44.9851","COUNTRY_CODE":"US","TLE_LINE1":"1 52114U 22029AC  22184.91667824  .00020179  00000-0  12834-2 0  9997","GP_ID":"207359106","MEAN_MOTION_DOT":"0.00020179","CENTER_NAME":"EARTH","NORAD_CAT_ID":"52114","MEAN_ELEMENT_THEORY":"SGP4","SEMIMAJOR_AXIS":"6917.973","INCLINATION":"53.2141","APOAPSIS":"541.097","MEAN_MOTION":"15.08809566","EPOCH":"2022-07-03T22:00:00.999936","SITE":"AFETR","OBJECT_TYPE":"PAYLOAD","DECAY_DATE":null,"RCS_SIZE":"LARGE","PERIOD":"95.439","MEAN_MOTION_DDOT":"0.0000000000000","LAUNCH_DATE":"2022-03-19","PERIAPSIS":"538.580","CLASSIFICATION_TYPE":"U","OBJECT_NAME":"STARLINK-3737","OBJECT_ID":"2022-029AC","EPHEMERIS_TYPE":"0","FILE":"3507292","REF_FRAME":"TEME","TIME_SYSTEM":"UTC","BSTAR":"0.00128340000000","ECCENTRICITY":"0.00018190","REV_AT_EPOCH":"130","TLE_LINE2":"2 52114  53.2141 356.0370 0001819  44.9851 158.3331 15.08809566  1301","RA_OF_ASC_NODE":"356.0370","ELEMENT_SET_NO":"999"},{"MEAN_MOTION_DOT":"0.00046391","NORAD_CAT_ID":"52115","CENTER_NAME":"EARTH","MEAN_ELEMENT_THEORY":"SGP4","SEMIMAJOR_AXIS":"6917.988","MEAN_MOTION":"15.08804942","EPOCH":"2022-07-03T22:00:00.999936","INCLINATION":"53.2158","APOAPSIS":"540.830","MEAN_ANOMALY":"246.7938","ARG_OF_PERICENTER":"56.4985","COUNTRY_CODE":"US","GP_ID":"207359475","TLE_LINE1":"1 52115U 22029AD  22184.91667824  .00046391  00000-0  29166-2 0  9998","OBJECT_ID":"2022-029AD","OBJECT_NAME":"STARLINK-3685","EPHEMERIS_TYPE":"0","CLASSIFICATION_TYPE":"U","REF_FRAME":"TEME","FILE":"3507292","TIME_SYSTEM":"UTC","ELEMENT_SET_NO":"999","TLE_LINE2":"2 52115  53.2158 356.0250 0001413  56.4985 246.7938 15.08804942  1301","RA_OF_ASC_NODE":"356.0250","REV_AT_EPOCH":"130","ECCENTRICITY":"0.00014130","BSTAR":"0.00291660000000","SITE":"AFETR","OBJECT_TYPE":"PAYLOAD","DECAY_DATE":null,"PERIOD":"95.440","RCS_SIZE":"LARGE","MEAN_MOTION_DDOT":"0.0000000000000","LAUNCH_DATE":"2022-03-19","PERIAPSIS":"538.875"},{"MEAN_MOTION":"15.08806028","EPOCH":"2022-07-03T22:00:00.999936","INCLINATION":"53.2146","APOAPSIS":"541.140","MEAN_ELEMENT_THEORY":"SGP4","SEMIMAJOR_AXIS":"6917.984","NORAD_CAT_ID":"52116","CENTER_NAME":"EARTH","MEAN_MOTION_DOT":"0.00049944","TLE_LINE1":"1 52116U 22029AE  22184.91667824  .00049944  00000-0  31369-2 0  9994","GP_ID":"207359409","ARG_OF_PERICENTER":"45.1766","COUNTRY_CODE":"US","MEAN_ANOMALY":"197.9674","REV_AT_EPOCH":"130","TLE_LINE2":"2 52116  53.2146 356.0274 0001866  45.1766 197.9674 15.08806028  1300","ELEMENT_SET_NO":"999","RA_OF_ASC_NODE":"356.0274","BSTAR":"0.00313690000000","ECCENTRICITY":"0.00018660","TIME_SYSTEM":"UTC","REF_FRAME":"TEME","FILE":"3507292","OBJECT_NAME":"STARLINK-3735","OBJECT_ID":"2022-029AE","EPHEMERIS_TYPE":"0","CLASSIFICATION_TYPE":"U","PERIAPSIS":"538.558","LAUNCH_DATE":"2022-03-19","DECAY_DATE":null,"MEAN_MOTION_DDOT":"0.0000000000000","RCS_SIZE":"LARGE","PERIOD":"95.440","SITE":"AFETR","OBJECT_TYPE":"PAYLOAD"}];
